FLOCK 4S-9              
1 47478U 21006BT  22249.10393649  .00016226  00000+0  81551-3 0  9992
2 47478  97.4329 306.1767 0007829  28.5288 331.6372 15.17309475 89470
FLOCK 4S-32             
1 47479U 21006BU  22249.12623571  .00018864  00000+0  89670-3 0  9995
2 47479  97.4318 306.4661 0006323  27.0628 333.0935 15.19231501 89494
FLOCK 4S-39             
1 47490U 21006CF  22249.33044603  .00013911  00000+0  70039-3 0  9991
2 47490  97.4418 307.3346 0009412   9.6535 350.4878 15.17272762 89528
FLOCK 4S-4              
1 47491U 21006CG  22249.39220617  .00012846  00000+0  64697-3 0  9998
2 47491  97.4296 306.4996 0009227   7.2115 352.9250 15.17279862 89536
FLOCK 4S-17             
1 47492U 21006CH  22249.12573506  .00013964  00000+0  70322-3 0  9992
2 47492  97.4430 307.1945 0009396   9.9139 350.2278 15.17263366 89499
FLOCK 4S-3              
1 47494U 21006CK  22249.32171023  .00005063  00000+0  27094-3 0  9993
2 47494  97.4310 306.0703 0009856   6.6988 353.4375 15.15444381 89494
FLOCK 4S-27             
1 47495U 21006CL  22249.12155349  .00013082  00000+0  65885-3 0  9995
2 47495  97.4304 306.3070 0009812   8.3026 351.8368 15.17273047 89497
FLOCK 4S-18             
1 47496U 21006CM  22249.12036487  .00014449  00000+0  72740-3 0  9993
2 47496  97.4410 307.1071 0009511   8.5976 351.5419 15.17265751 89495
FLOCK 4S-26             
1 47497U 21006CN  22249.15667792  .00019133  00000+0  87169-3 0  9992
2 47497  97.4299 307.0169 0007857   3.2220 356.9064 15.20686241 89549
FLOCK 4S-2              
1 47498U 21006CP  22249.11323216  .00013912  00000+0  70019-3 0  9994
2 47498  97.4316 306.3653 0009196   4.9188 355.2135 15.17285731 89499
FLOCK 4S-40             
1 47499U 21006CQ  22249.12504559  .00011240  00000+0  56749-3 0  9993
2 47499  97.4413 307.0913 0009701   8.7617 351.3784 15.17225371 89497
FLOCK 4S-19             
1 47500U 21006CR  22249.50392202  .00013451  00000+0  67723-3 0  9998
2 47500  97.4412 307.4916 0009972   5.0615 355.0718 15.17274619 89558
FLOCK 4S-28             
1 47514U 21006DE  22249.39701723  .00008541  00000+0  43149-3 0  9992
2 47514  97.4298 306.3633 0007786  20.6866 339.4682 15.17293236 90487
FLOCK 4S-5              
1 47515U 21006DF  22249.39512283  .00012153  00000+0  61228-3 0  9996
2 47515  97.4292 306.3155 0008214  21.3463 338.8112 15.17290228 89521
FLOCK 4S-16             
1 47516U 21006DG  22249.14260425  .00014144  00000+0  71264-3 0  9991
2 47516  97.4414 306.9619 0008185  21.8936 338.2646 15.17250918 90447
FLOCK 4S-6              
1 47518U 21006DJ  22249.40749357  .00011965  00000+0  60294-3 0  9997
2 47518  97.4309 306.3932 0008028  24.1764 335.9845 15.17288781 90494
FLOCK 4S-29             
1 47520U 21006DL  22249.46813792  .00012440  00000+0  62719-3 0  9994
2 47520  97.4314 306.5121 0007477  21.5959 338.5588 15.17265168 89539
FLOCK 4S-15             
1 47521U 21006DM  22249.12964564  .00003761  00000+0  20207-3 0  9994
2 47521  97.4422 306.6474 0008783  24.8457 335.3197 15.15472207 90436
FLOCK 4S-37             
1 47522U 21006DN  22249.14749210  .00013316  00000+0  67105-3 0  9991
2 47522  97.4402 306.8493 0007728  25.3377 334.8234 15.17261342 90459
FLOCK 4S-10             
1 47523U 21006DP  22249.11958830  .00010660  00000+0  53831-3 0  9999
2 47523  97.4336 306.2308 0007931  28.9349 331.2322 15.17243543 89471
FLOCK 4S-7              
1 47527U 21006DT  22249.15063643  .00013629  00000+0  68611-3 0  9996
2 47527  97.4309 306.1305 0007801  26.2672 333.8956 15.17291826 90444
FLOCK 4S-14             
1 47528U 21006DU  22249.15613883  .00014453  00000+0  72773-3 0  9994
2 47528  97.4406 306.8597 0007863  25.9146 334.2480 15.17272204 90449
FLOCK 4S-36             
1 47530U 21006DW  22249.15768709  .00014659  00000+0  73898-3 0  9992
2 47530  97.4396 306.7841 0007379  25.3601 334.7993 15.17230791 90442
FLOCK 4S-24             
1 47539U 21006DZ  22249.16055411  .00015355  00000+0  77449-3 0  9991
2 47539  97.4345 306.6758 0010233   4.5774 355.5551 15.17179513 89504
FLOCK 4S-20             
1 47540U 21006EA  22249.16013235  .00013408  00000+0  67540-3 0  9999
2 47540  97.4402 307.0981 0009590   6.5051 353.6305 15.17260853 88577
FLOCK 4S-25             
1 47542U 21006EC  22249.16713187  .00015978  00000+0  80317-3 0  9995
2 47542  97.4324 306.5091 0009899   6.8902 353.2466 15.17293157 88575
FLOCK 4S-1              
1 47543U 21006ED  22249.16545959  .00015264  00000+0  76787-3 0  9990
2 47543  97.4325 306.5012 0009305   4.1339 355.9970 15.17280229 88572
FLOCK 4S-30             
1 47544U 21006EE  22249.14750064  .00014483  00000+0  72956-3 0  9990
2 47544  97.4320 306.2247 0007414  24.0942 336.0637 15.17259146 90448
FLOCK 4S-23             
1 47545U 21006EF  22249.40712533  .00015486  00000+0  78016-3 0  9996
2 47545  97.4355 307.0393 0010020   5.3170 354.8168 15.17221424 90513
FLOCK 4S-42             
1 47612U 21006EQ  22249.40241630  .00011600  00000+0  58406-3 0  9991
2 47612  97.4377 307.0884 0010390  17.5276 342.6314 15.17306384 89536
FLOCK 4S-48             
1 47617U 21006EJ  22249.11628303  .00005648  00000+0  28668-3 0  9992
2 47617  97.4365 306.9191 0010383 357.1054   3.0118 15.17259945 90471
FLOCK 4S-46             
1 47684U 21006EK  22249.39223185  .00013516  00000+0  68067-3 0  9995
2 47684  97.4365 307.1343 0007721  32.0716 328.0986 15.17282768 89541
FLOCK 4S-47             
1 47685U 21006EL  22249.12494335  .00018278  00000+0  91837-3 0  9995
2 47685  97.4343 306.3227 0006667  27.8964 332.2626 15.17301731 90446
FLOCK 4S-44             
1 47686U 21006EM  22249.11120955  .00018048  00000+0  90660-3 0  9997
2 47686  97.4387 306.9293 0011206  11.9905 348.1593 15.17278899 89498
FLOCK 4S-43             
1 47687U 21006EN  22249.16369763  .00008717  00000+0  44054-3 0  9993
2 47687  97.4358 306.5214 0006256  18.5788 341.5673 15.17285160 90450
FLOCK 4S-45             
1 47688U 21006EP  22249.10793288  .00014485  00000+0  72925-3 0  9998
2 47688  97.4372 306.3982 0009712 359.4318   0.6903 15.17262771 90433
FLOCK 4S-41             
1 47698U 21006ER  22249.13743517  .00013333  00000+0  67129-3 0  9993
2 47698  97.4421 307.0097 0009550  11.6542 348.4911 15.17281482 89485
FLOCK 4X-8              
1 50992U 22002J   22249.44292954  .00011266  00000+0  58553-3 0  9993
2 50992  97.4820 315.4927 0012581 145.8193 214.3852 15.16174835 35695
FLOCK 4X-44             
1 50994U 22002L   22249.18564536  .00013348  00000+0  69221-3 0  9991
2 50994  97.4841 315.2907 0012609 146.0904 214.1137 15.16211932 35650
FLOCK 4X-2              
1 50996U 22002N   22249.18388262  .00013704  00000+0  71101-3 0  9999
2 50996  97.4830 315.2639 0012539 146.2868 213.9164 15.16188333 35650
FLOCK 4X-20             
1 50997U 22002P   22249.18042125  .00011040  00000+0  57446-3 0  9992
2 50997  97.4831 315.2619 0012443 146.6315 213.5704 15.16140071 35658
FLOCK 4X-30             
1 51000U 22002S   22249.18195248  .00014078  00000+0  72958-3 0  9992
2 51000  97.4777 315.0911 0012618 138.8731 221.3455 15.16220991 35655
FLOCK 4X-22             
1 51003U 22002V   22249.17760099  .00012918  00000+0  67011-3 0  9991
2 51003  97.4813 315.2172 0012626 148.4865 211.7126 15.16207437 35652
FLOCK 4X-5              
1 51004U 22002W   22249.17584716  .00013996  00000+0  72442-3 0  9993
2 51004  97.4786 315.1338 0013007 140.5785 219.6397 15.16262482 35651
FLOCK 4X-41             
1 51005U 22002X   22249.43795857  .00011831  00000+0  61450-3 0  9996
2 51005  97.4771 315.3420 0012677 136.3961 223.8276 15.16186225 35698
FLOCK 4X-3              
1 51006U 22002Y   22249.50294380  .00010545  00000+0  54754-3 0  9990
2 51006  97.4827 315.5923 0013255 143.6704 216.5431 15.16220667 35703
FLOCK 4X-18             
1 51007U 22002Z   22249.43512466  .00012362  00000+0  64108-3 0  9994
2 51007  97.4789 315.4085 0013387 139.8321 220.3904 15.16221846 35693
FLOCK 4X-37             
1 51009U 22002AB  22249.16998196  .00007983  00000+0  41503-3 0  9991
2 51009  97.4834 315.2975 0013448 144.8229 215.3894 15.16257510 35658
FLOCK 4X-15             
1 51010U 22002AC  22249.42767641  .00012681  00000+0  65770-3 0  9994
2 51010  97.4837 315.5790 0013562 142.4949 217.7233 15.16207797 35690
FLOCK 4X-29             
1 51011U 22002AD  22249.16801078  .00013329  00000+0  69021-3 0  9992
2 51011  97.4784 315.1323 0013328 139.5847 220.6378 15.16256137 35655
FLOCK 4X-27             
1 51012U 22002AE  22249.16675004  .00007325  00000+0  38128-3 0  9994
2 51012  97.4820 315.2608 0013531 146.9699 213.2382 15.16243280 35655
FLOCK 4X-12             
1 51015U 22002AH  22249.16052383  .00012314  00000+0  63782-3 0  9994
2 51015  97.4822 315.2754 0013815 141.4458 218.7764 15.16259841 35654
FLOCK 4X-25             
1 51016U 22002AJ  22249.16510690  .00006496  00000+0  33855-3 0  9997
2 51016  97.4806 315.2230 0013288 148.2818 211.9218 15.16247294 35653
FLOCK 4X-1              
1 51017U 22002AK  22249.42258555  .00014654  00000+0  75895-3 0  9991
2 51017  97.4781 315.4282 0013600 140.6279 219.5945 15.16223038 35695
FLOCK 4X-42             
1 51018U 22002AL  22249.42556147  .00012330  00000+0  63920-3 0  9995
2 51018  97.4772 315.3781 0013357 135.8156 224.4146 15.16235009 35697
FLOCK 4X-16             
1 51020U 22002AN  22249.15679775  .00015319  00000+0  79313-3 0  9994
2 51020  97.4776 315.1321 0013676 138.2857 221.9421 15.16224206 35652
FLOCK 4X-38             
1 51023U 22002AR  22249.15594538  .00005932  00000+0  30932-3 0  9994
2 51023  97.4827 315.2960 0013884 143.8792 216.3381 15.16255973 35651
FLOCK 4X-32             
1 51024U 22002AS  22249.15416121  .00008352  00000+0  43421-3 0  9992
2 51024  97.4831 315.3093 0013871 140.9327 219.2911 15.16237377 35652
FLOCK 4X-26             
1 51026U 22002AU  22249.41488256  .00013378  00000+0  69282-3 0  9998
2 51026  97.4788 315.4434 0013563 141.1501 219.0709 15.16247941 35695
FLOCK 4X-43             
1 51027U 22002AV  22249.15231783  .00005676  00000+0  29640-3 0  9997
2 51027  97.4782 315.1683 0013659 139.6626 220.5623 15.16229299 35653
